MEAN_MOTION;ECCENTRICITY;INCLINATION;RA_OF_ASC_NODE;ARG_OF_PERICENTER;MEAN_ANOMALY;BSTAR;MEAN_MOTION_DOT;MEAN_MOTION_DDOT;TYPE
14.39578765;0.0013502;86.393;98.0712;52.825;307.4179;2.6802E-5;1.04E-6;0;Iridium
14.39578915;0.0013445;86.3929;97.7778;50.8306;309.4085;2.8913E-5;1.1E-6;0;Iridium
14.39579091;0.0013357;86.3928;97.3671;48.0178;312.2157;3.0501E-5;1.15E-6;0;Iridium
14.39579102;0.0013353;86.3928;97.3377;47.8047;312.4283;3.0553E-5;1.16E-6;0;Iridium
14.39579241;0.0013275;86.3928;96.9856;45.3713;314.8566;3.1083E-5;1.17E-6;0;Iridium
14.39579425;0.0013182;86.3927;96.5455;42.3602;317.8612;2.9906E-5;1.13E-6;0;Iridium
14.39579425;0.0013182;86.3927;96.5455;42.3602;317.8612;2.9906E-5;1.13E-6;0;Iridium
14.39579536;0.0013085;86.3927;96.1347;39.5086;320.7064;2.6497E-5;1.03E-6;0;Iridium
14.39579665;0.0012988;86.3927;95.7239;36.6457;323.5628;2.4004E-5;9.5E-7;0;Iridium
14.39579693;0.0012977;86.3927;95.6652;36.2331;323.9744;2.3317E-5;9.3E-7;0;Iridium
14.39579867;0.001288;86.3927;95.2838;33.5721;326.6292;2.3321E-5;9.3E-7;0;Iridium
14.39579869;0.0012874;86.3927;95.2544;33.3554;326.8454;2.2537E-5;9.0E-7;0;Iridium
14.39579882;0.0012862;86.3926;95.1957;32.9405;327.2593;2.2295E-5;9.0E-7;0;Iridium
14.39580083;0.0012725;86.3927;94.6676;29.1373;331.0533;2.1228E-5;8.6E-7;0;Iridium
14.3958016;0.0012654;86.3927;94.4035;27.2307;332.9553;2.0124E-5;8.3E-7;0;Iridium
14.39580264;0.0012544;86.3927;93.9927;24.2525;335.9262;1.9716E-5;8.2E-7;0;Iridium
14.39580377;0.0012424;86.3927;93.582;21.2473;338.9239;2.0517E-5;8.4E-7;0;Iridium
14.39580379;0.0012387;86.3927;93.4059;19.9485;340.2195;1.8462E-5;7.8E-7;0;Iridium
14.39580411;0.0012314;86.3927;93.1712;18.2285;341.9353;1.7934E-5;7.6E-7;0;Iridium
14.39580443;0.0012305;86.3927;93.1419;18.027;342.1362;1.8897E-5;7.9E-7;0;Iridium
14.39580569;0.001218;86.3927;92.7311;15.0061;345.1497;2.1408E-5;8.7E-7;0;Iridium
14.39580624;0.0012129;86.3927;92.5551;13.6952;346.4573;2.2465E-5;9.0E-7;0;Iridium
14.39580695;0.0012061;86.3927;92.3204;11.9022;348.2459;2.2785E-5;9.1E-7;0;Iridium
14.39580754;0.001201;86.3927;92.1444;10.5773;349.5676;2.3942E-5;9.5E-7;0;Iridium
14.39580842;0.0011932;86.3927;91.8803;8.5822;351.5578;2.4159E-5;9.5E-7;0;Iridium
14.39580842;0.0011932;86.3927;91.8803;8.5822;351.5578;2.4159E-5;9.5E-7;0;Iridium
14.39581001;0.0011805;86.3927;91.4695;5.492;354.6406;2.5162E-5;9.9E-7;0;Iridium
14.3958107;0.0011758;86.3927;91.2935;4.1421;355.9873;2.5706E-5;1.0E-6;0;Iridium
14.39581147;0.0011695;86.3928;91.0588;2.2923;357.8327;2.4767E-5;9.7E-7;0;Iridium
14.39581218;0.0011642;86.3928;90.8828;0.9307;359.1911;2.5242E-5;9.9E-7;0;Iridium
14.39581298;0.001156;86.3929;90.6188;358.8704;1.2466;2.3722E-5;9.4E-7;0;Iridium
14.39581298;0.001156;86.3929;90.6188;358.8704;1.2466;2.3722E-5;9.4E-7;0;Iridium
14.39581358;0.0011508;86.3929;90.4428;357.5058;2.6081;2.2999E-5;9.2E-7;0;Iridium
14.39581414;0.0011446;86.393;90.2375;355.8828;4.2275;2.2124E-5;8.9E-7;0;Iridium
14.39581474;0.0011383;86.393;90.0321;354.2684;5.8383;2.1111E-5;8.6E-7;0;Iridium
14.39581532;0.0011327;86.3931;89.7975;352.3508;7.7516;1.9372E-5;8.0E-7;0;Iridium
14.39581532;0.0011327;86.3931;89.7975;352.3508;7.7516;1.9372E-5;8.0E-7;0;Iridium
14.39581594;0.0011274;86.3932;89.6215;350.9432;9.1562;1.9322E-5;8.0E-7;0;Iridium
14.39581671;0.0011199;86.3933;89.3575;348.8133;11.2815;1.7976E-5;7.6E-7;0;Iridium
14.39581671;0.0011199;86.3933;89.3575;348.8133;11.2815;1.7976E-5;7.6E-7;0;Iridium
14.39581729;0.0011146;86.3933;89.1815;347.4077;12.6841;1.7926E-5;7.6E-7;0;Iridium
14.39581814;0.0011076;86.3934;88.9468;345.5008;14.5871;1.8004E-5;7.6E-7;0;Iridium
14.39581871;0.0011021;86.3934;88.7708;344.0681;16.017;1.8291E-5;7.7E-7;0;Iridium
14.39581883;0.0011005;86.3934;88.7121;343.581;16.5031;1.7582E-5;7.5E-7;0;Iridium
14.3958198;0.0010895;86.3935;88.3308;340.4165;19.6614;1.7311E-5;7.4E-7;0;Iridium
14.39582054;0.001083;86.3936;88.0961;338.4523;21.6218;1.7772E-5;7.5E-7;0;Iridium
14.39582054;0.001083;86.3936;88.0961;338.4523;21.6218;1.7772E-5;7.5E-7;0;Iridium
14.39582115;0.0010779;86.3936;87.9201;336.9991;23.0724;1.8624E-5;7.8E-7;0;Iridium
14.39582224;0.0010707;86.3936;87.6854;335.0229;25.045;2.0917E-5;8.5E-7;0;Iridium
14.39582286;0.0010661;86.3937;87.5094;333.5443;26.521;2.1974E-5;8.9E-7;0;Iridium
14.39582363;0.0010602;86.3938;87.2747;331.5233;28.5385;2.2641E-5;9.1E-7;0;Iridium
14.39582438;0.0010551;86.3938;87.0694;329.766;30.2929;2.3755E-5;9.4E-7;0;Iridium
14.39582546;0.0010489;86.3938;86.8348;327.7333;32.3223;2.5886E-5;1.01E-6;0;Iridium
14.39582631;0.0010443;86.3938;86.6587;326.2258;33.8275;2.7493E-5;1.06E-6;0;Iridium
14.3958271;0.0010377;86.3939;86.4241;324.1684;35.8817;2.787E-5;1.07E-6;0;Iridium
14.39582784;0.0010334;86.3939;86.2481;322.6321;37.4158;2.8754E-5;1.1E-6;0;Iridium
14.39582971;0.0010238;86.3941;85.8082;318.7445;41.2979;2.9065E-5;1.11E-6;0;Iridium
14.39583036;0.001018;86.3942;85.5736;316.6347;43.405;2.7684E-5;1.06E-6;0;Iridium
14.39583036;0.001018;86.3942;85.5736;316.6347;43.405;2.7684E-5;1.06E-6;0;Iridium
14.39583099;0.0010135;86.3942;85.3976;315.0644;44.9734;2.6935E-5;1.04E-6;0;Iridium
14.39583166;0.0010088;86.3943;85.163;312.955;47.0802;2.5395E-5;9.9E-7;0;Iridium
14.39583241;0.0010046;86.3944;84.9578;311.1007;48.9323;2.439E-5;9.6E-7;0;Iridium
14.39583299;0.0010012;86.3945;84.7525;309.2213;50.8096;2.262E-5;9.0E-7;0;Iridium
14.39583352;0.0009972;86.3945;84.5472;307.3611;52.6679;2.1072E-5;8.6E-7;0;Iridium
14.3958351;0.0009885;86.3947;84.1367;303.5605;56.4649;1.9587E-5;8.1E-7;0;Iridium
14.39583616;0.000985;86.3948;83.9021;301.4161;58.6074;1.9828E-5;8.2E-7;0;Iridium
14.39583723;0.0009803;86.395;83.4916;297.6591;62.3612;1.7483E-5;7.4E-7;0;Iridium
14.39583782;0.0009774;86.395;83.2864;295.7569;64.2621;1.705E-5;7.3E-7;0;Iridium
14.39583818;0.0009735;86.3951;83.0518;293.5476;66.4699;1.6004E-5;7.0E-7;0;Iridium
14.39583818;0.0009735;86.3951;83.0518;293.5476;66.4699;1.6004E-5;7.0E-7;0;Iridium
14.39583875;0.0009708;86.3952;82.8466;291.6331;68.3833;1.5909E-5;7.0E-7;0;Iridium
14.39583909;0.0009684;86.3953;82.6413;289.6744;70.341;1.558E-5;6.9E-7;0;Iridium
14.39583932;0.000966;86.3953;82.4361;287.7377;72.2767;1.4656E-5;6.6E-7;0;Iridium
14.39583993;0.0009651;86.3954;82.2308;285.832;74.1815;1.5698E-5;6.9E-7;0;Iridium
14.39584034;0.0009636;86.3955;82.0256;283.9008;76.1118;1.6158E-5;7.0E-7;0;Iridium
14.39584077;0.0009621;86.3955;81.791;281.6891;78.3228;1.6491E-5;7.1E-7;0;Iridium
14.39584077;0.0009621;86.3955;81.791;281.6891;78.3228;1.6491E-5;7.1E-7;0;Iridium
14.39584157;0.0009609;86.3956;81.5858;279.7581;80.2533;1.8402E-5;7.7E-7;0;Iridium
14.39584251;0.0009598;86.3957;81.3806;277.7811;82.2297;2.1228E-5;8.6E-7;0;Iridium
14.3958432;0.0009592;86.3957;81.1461;275.5654;84.4451;2.1749E-5;8.8E-7;0;Iridium
14.39584421;0.0009588;86.3958;80.9702;273.8685;86.1418;2.4045E-5;9.5E-7;0;Iridium
14.39584484;0.0009586;86.3959;80.765;271.9565;88.0535;2.438E-5;9.6E-7;0;Iridium
14.39584588;0.0009575;86.3959;80.5306;269.622;90.3881;2.5771E-5;1.0E-6;0;Iridium
14.39584588;0.0009575;86.3959;80.5306;269.622;90.3881;2.5771E-5;1.0E-6;0;Iridium
14.39584653;0.0009565;86.396;80.3253;267.6275;92.3828;2.5398E-5;9.9E-7;0;Iridium
14.39584706;0.0009561;86.396;80.0909;265.3201;94.6906;2.4554E-5;9.7E-7;0;Iridium
14.39584706;0.0009561;86.396;80.0909;265.3201;94.6906;2.4554E-5;9.7E-7;0;Iridium
14.39584761;0.0009563;86.3961;79.915;263.641;96.37;2.3817E-5;9.4E-7;0;Iridium
14.39584796;0.0009569;86.3962;79.7099;261.6951;98.3163;2.2196E-5;8.9E-7;0;Iridium
14.39584873;0.000958;86.3963;79.4754;259.4768;100.5351;2.1321E-5;8.6E-7;0;Iridium
14.39584976;0.0009596;86.3964;79.1237;256.1556;103.8575;2.0183E-5;8.3E-7;0;Iridium
14.39584992;0.0009598;86.3964;79.0651;255.5993;104.4141;1.9231E-5;8.0E-7;0;Iridium
14.39585059;0.0009613;86.3965;78.8599;253.608;106.4063;1.8824E-5;7.9E-7;0;Iridium
14.39585114;0.0009626;86.3965;78.6548;251.6921;108.3231;1.7461E-5;7.4E-7;0;Iridium
14.39585203;0.0009648;86.3967;78.4203;249.4854;110.531;1.7707E-5;7.5E-7;0;Iridium
14.39585203;0.0009648;86.3967;78.4203;249.4854;110.531;1.7707E-5;7.5E-7;0;Iridium
14.39585247;0.0009668;86.3968;78.2152;247.5645;112.453;1.661E-5;7.2E-7;0;Iridium
14.39585347;0.0009689;86.3969;78.0393;245.8782;114.1404;1.827E-5;7.7E-7;0;Iridium
14.39585424;0.0009711;86.397;77.8049;243.6736;116.3466;1.7814E-5;7.6E-7;0;Iridium
14.39585468;0.0009737;86.397;77.5997;241.7482;118.2734;1.7068E-5;7.3E-7;0;Iridium
14.39585468;0.0009737;86.397;77.5997;241.7482;118.2734;1.7068E-5;7.3E-7;0;Iridium
14.39585528;0.0009767;86.3971;77.3653;239.541;120.4825;1.6774E-5;7.2E-7;0;Iridium
14.39585586;0.0009793;86.3972;77.1894;237.9428;122.082;1.6993E-5;7.3E-7;0;Iridium
14.39585586;0.0009793;86.3972;77.1894;237.9428;122.082;1.6993E-5;7.3E-7;0;Iridium
14.39585644;0.0009829;86.3973;76.955;235.7316;124.2953;1.7283E-5;7.4E-7;0;Iridium
14.39585733;0.000986;86.3974;76.7792;234.0624;125.9661;1.926E-5;8.0E-7;0;Iridium
14.3958578;0.0009894;86.3974;76.5448;231.9104;128.1203;1.8475E-5;7.8E-7;0;Iridium
14.39585897;0.0009931;86.3975;76.3396;229.9496;130.0832;2.1717E-5;8.8E-7;0;Iridium
14.39585897;0.0009931;86.3975;76.3396;229.9496;130.0832;2.1717E-5;8.8E-7;0;Iridium
14.39585959;0.0009975;86.3975;76.1052;227.7994;132.2359;2.1662E-5;8.8E-7;0;Iridium
14.39586063;0.001001;86.3976;75.9293;226.2405;133.7966;2.4283E-5;9.6E-7;0;Iridium
14.39586122;0.0010055;86.3976;75.6949;224.1428;135.897;2.4042E-5;9.5E-7;0;Iridium
14.39586278;0.0010151;86.3978;75.2847;220.2789;139.7659;2.5566E-5;1.0E-6;0;Iridium
14.39586388;0.0010207;86.3978;75.0503;218.1338;141.914;2.7483E-5;1.06E-6;0;Iridium
14.39586543;0.0010296;86.3979;74.6694;214.7761;145.2766;2.7771E-5;1.07E-6;0;Iridium
14.39586622;0.001035;86.398;74.435;212.7434;147.3124;2.7053E-5;1.04E-6;0;Iridium
14.39586709;0.0010401;86.398;74.2299;210.9469;149.1118;2.699E-5;1.04E-6;0;Iridium
14.39586709;0.0010401;86.398;74.2299;210.9469;149.1118;2.699E-5;1.04E-6;0;Iridium
14.3958682;0.0010455;86.3981;74.0248;209.1299;150.9318;2.7926E-5;1.07E-6;0;Iridium
14.3958694;0.0010506;86.3981;73.8198;207.3788;152.6859;2.9356E-5;1.12E-6;0;Iridium
